IRIDIUM 136             
1 42962U 17061H   24121.54387596  .00000573  00000+0  19761-3 0  9996
2 42962  86.3992 350.2411 0002467  85.2764 274.8713 14.34216219343374
